METAR codes 
2014/11/10 14:20
EKBI 101420Z 18008KT 4000 BR BKN005 09/09 Q1006
2014/11/10 14:22
CYUL 101422Z 28008KT 15SM BKN055 BKN240 06/00 A3008 RMK SC7CI1 CI TR PRESRR SLP188
2014/11/10 14:20
EDJA 101420Z 00000KT CAVOK 10/06 Q1013
2014/11/10 14:20
EDDM 101420Z VRB02KT 9999 BKN009 07/06 Q1013 BECMG BKN010
2014/11/10 14:50
EDMA 101450Z 05002KT CAVOK 08/07 Q1014 RMK ATIS ZUL
2014/11/10 14:20
EDMO 101420Z VRB02KT 9999 SCT012 BKN100 08/05 Q1013
2014/11/10 14:20
EDNY 101420Z 01002KT CAVOK 10/05 Q1013 RMK T
2014/11/10 14:20
ETSI 101420Z 10001KT 7000 BKN008 OVC011 08/06 Q1013 GRN GRN
2014/11/10 14:30
GCLP 101430Z 01020KT 340V040 9999 FEW030 25/16 Q1017 NOSIG
2014/11/10 13:51
KJFK 101351Z 00000KT 10SM FEW140 SCT250 11/04 A3018 RMK AO2 SLP219 T01110044
2014/11/10 14:20
LOWI 101420Z 06011KT 030V100 9999 FEW060 BKN100 16/06 Q1011 NOSIG
2014/11/10 14:20
LOWS 101420Z 20003KT 160V250 9999 SCT005 OVC007 07/06 Q1013 NOSIG
2014/11/10 14:00
LOWZ 101400Z 07004KT 40KM SCT060CU BKN120AC 11/08 Q1010 RMK BKN
